{
  "type": "FeatureCollection",
  "features": [
    {
      "type": "Feature",
      "geometry": { "type": "Point", "coordinates": [121.452311, 24.997313] },
      "properties": { "name": "醫療財團法人徐元智先生醫藥基金會亞東紀念醫院", "address": "新北市板橋區南雅南路2段21號" }
    },
    {
      "type": "Feature",
      "geometry": { "type": "Point", "coordinates": [121.466262, 25.019884] },
      "properties": { "name": "中英醫療社團法人中英醫院", "address": "新北市板橋區文化路一段196號" }
    },
    {
      "type": "Feature",
      "geometry": { "type": "Point", "coordinates": [121.464638, 25.018516] },
      "properties": { "name": "中英醫療社團法人板英醫院", "address": "新北市板橋區文化路1段267、269、271號" }
    },
    {
      "type": "Feature",
      "geometry": { "type": "Point", "coordinates": [121.460085, 25.001955] },
      "properties": { "name": "板橋國泰醫院", "address": "新北市板橋區忠孝路5、7、9、11號" }
    },
    {
      "type": "Feature",
      "geometry": { "type": "Point", "coordinates": [121.456472, 25.006972] },
      "properties": { "name": "蕭中正醫院", "address": "新北市板橋區南雅南路一段15號" }
    },
    {
      "type": "Feature",
      "geometry": { "type": "Point", "coordinates": [121.48378, 25.053965] },
      "properties": { "name": "宏仁醫院", "address": "新北市三重區水漾路一段158號" }
    },
    {
      "type": "Feature",
      "geometry": { "type": "Point", "coordinates": [121.46966, 25.046535] },
      "properties": { "name": "三重中興醫院", "address": "新北市三重區中興北街21號" }
    },
    {
      "type": "Feature",
      "geometry": { "type": "Point", "coordinates": [121.512036, 25.003936] },
      "properties": { "name": "永和復康醫院", "address": "新北市永和區中和路575．577．579號" }
    },
    {
      "type": "Feature",
      "geometry": { "type": "Point", "coordinates": [121.498506, 25.001882] },
      "properties": { "name": "怡和醫院", "address": "新北市中和區連城路49號" }
    },
    {
      "type": "Feature",
      "geometry": { "type": "Point", "coordinates": [121.460834, 25.038661] },
      "properties": { "name": "祥顥醫院", "address": "新北市新莊區思源路2號" }
    },
    {
      "type": "Feature",
      "geometry": { "type": "Point", "coordinates": [121.517564, 25.04536] },
      "properties": { "name": "國立台灣大學醫學院附設醫院", "address": "臺北市中正區中山南路7、8號" }
    },
    {
      "type": "Feature",
      "geometry": { "type": "Point", "coordinates": [121.508885, 25.050693] },
      "properties": { "name": "臺北市立聯合醫院", "address": "臺北市大同區鄭州路145號" }
    },
    {
      "type": "Feature",
      "geometry": { "type": "Point", "coordinates": [121.557702, 25.05394] },
      "properties": { "name": "三軍總醫院松山分院附設民眾診療服務處", "address": "臺北市松山區健康路131號" }
    },
    {
      "type": "Feature",
      "geometry": { "type": "Point", "coordinates": [121.560387, 25.049959] },
      "properties": { "name": "博仁綜合醫院", "address": "臺北市松山區光復北路66號" }
    },
    {
      "type": "Feature",
      "geometry": { "type": "Point", "coordinates": [121.55571, 25.03982] },
      "properties": { "name": "秀傳醫院", "address": "臺北市大安區光復南路116巷1、3、5號" }
    },
    {
      "type": "Feature",
      "geometry": { "type": "Point", "coordinates": [121.509823, 25.024051] },
      "properties": { "name": "同仁院醫療財團法人萬華醫院", "address": "臺北市萬華區中華路二段606巷6號" }
    },
    {
      "type": "Feature",
      "geometry": { "type": "Point", "coordinates": [121.563635, 25.026639] },
      "properties": { "name": "臺北醫學大學附設醫院", "address": "臺北市信義區吳興街252號" }
    },
    {
      "type": "Feature",
      "geometry": { "type": "Point", "coordinates": [121.520986, 25.09625] },
      "properties": { "name": "新光醫療財團法人新光吳火獅紀念醫院", "address": "臺北市士林區文昌路95號" }
    },
    {
      "type": "Feature",
      "geometry": { "type": "Point", "coordinates": [121.522479, 25.120637] },
      "properties": { "name": "臺北榮民總醫院", "address": "臺北市北投區石牌路二段201號" }
    },
    {
      "type": "Feature",
      "geometry": { "type": "Point", "coordinates": [121.467085, 25.120272] },
      "properties": { "name": "臺北市立關渡醫院─委託臺北榮民總醫院經營", "address": "臺北市北投區知行路二二五巷12號" }
    },
    {
      "type": "Feature",
      "geometry": { "type": "Point", "coordinates": [121.591979, 25.071802] },
      "properties": { "name": "三軍總醫院附設民眾診療服務處", "address": "臺北市內湖區成功路二段325號" }
    },
    {
      "type": "Feature",
      "geometry": { "type": "Point", "coordinates": [121.608779, 25.075952] },
      "properties": { "name": "康寧醫療財團法人康寧醫院", "address": "臺北市內湖區成功路五段420巷26號" }
    },
    {
      "type": "Feature",
      "geometry": { "type": "Point", "coordinates": [121.53983, 24.991089] },
      "properties": { "name": "景美醫院", "address": "臺北市文山區羅斯福路六段280號" }
    },
    {
      "type": "Feature",
      "geometry": { "type": "Point", "coordinates": [121.552799, 25.037179] },
      "properties": { "name": "國泰醫療財團法人國泰綜合醫院", "address": "臺北市大安區仁愛路四段266巷6號" }
    }
  ]
}
