{
  "type": "FeatureCollection",
  "features": [
    {
      "type": "Feature",
      "geometry": { "type": "Point", "coordinates": [121.517564, 25.04536] },
      "properties": { "name": "國立台灣大學醫學院附設醫院", "address": "臺北市中正區中山南路7、8號" }
    },
    {
      "type": "Feature",
      "geometry": { "type": "Point", "coordinates": [121.508885, 25.050693] },
      "properties": { "name": "臺北市立聯合醫院", "address": "臺北市大同區鄭州路145號" }
    },
    {
      "type": "Feature",
      "geometry": { "type": "Point", "coordinates": [121.557702, 25.05394] },
      "properties": { "name": "三軍總醫院松山分院附設民眾診療服務處", "address": "臺北市松山區健康路131號" }
    },
    {
      "type": "Feature",
      "geometry": { "type": "Point", "coordinates": [121.560387, 25.049959] },
      "properties": { "name": "博仁綜合醫院", "address": "臺北市松山區光復北路66號" }
    },
    {
      "type": "Feature",
      "geometry": { "type": "Point", "coordinates": [121.55571, 25.03982] },
      "properties": { "name": "秀傳醫院", "address": "臺北市大安區光復南路116巷1、3、5號" }
    },
    {
      "type": "Feature",
      "geometry": { "type": "Point", "coordinates": [121.509823, 25.024051] },
      "properties": { "name": "同仁院醫療財團法人萬華醫院", "address": "臺北市萬華區中華路二段606巷6號" }
    },
    {
      "type": "Feature",
      "geometry": { "type": "Point", "coordinates": [121.563635, 25.026639] },
      "properties": { "name": "臺北醫學大學附設醫院", "address": "臺北市信義區吳興街252號" }
    },
    {
      "type": "Feature",
      "geometry": { "type": "Point", "coordinates": [121.520986, 25.09625] },
      "properties": { "name": "新光醫療財團法人新光吳火獅紀念醫院", "address": "臺北市士林區文昌路95號" }
    },
    {
      "type": "Feature",
      "geometry": { "type": "Point", "coordinates": [121.522479, 25.120637] },
      "properties": { "name": "臺北榮民總醫院", "address": "臺北市北投區石牌路二段201號" }
    },
    {
      "type": "Feature",
      "geometry": { "type": "Point", "coordinates": [121.467085, 25.120272] },
      "properties": { "name": "臺北市立關渡醫院─委託臺北榮民總醫院經營", "address": "臺北市北投區知行路二二五巷12號" }
    },
    {
      "type": "Feature",
      "geometry": { "type": "Point", "coordinates": [121.591979, 25.071802] },
      "properties": { "name": "三軍總醫院附設民眾診療服務處", "address": "臺北市內湖區成功路二段325號" }
    },
    {
      "type": "Feature",
      "geometry": { "type": "Point", "coordinates": [121.608779, 25.075952] },
      "properties": { "name": "康寧醫療財團法人康寧醫院", "address": "臺北市內湖區成功路五段420巷26號" }
    },
    {
      "type": "Feature",
      "geometry": { "type": "Point", "coordinates": [121.53983, 24.991089] },
      "properties": { "name": "景美醫院", "address": "臺北市文山區羅斯福路六段280號" }
    },
    {
      "type": "Feature",
      "geometry": { "type": "Point", "coordinates": [121.552799, 25.037179] },
      "properties": { "name": "國泰醫療財團法人國泰綜合醫院", "address": "臺北市大安區仁愛路四段266巷6號" }
    }
  ]
}
